{
  "type": "FeatureCollection",
  "features": [
    {
      "type": "Feature",
      "properties": {
        "norad_id": 66597,
        "name": "STARLINK-35820",
        "group": "last-30-days",
        "lat": 32.185642739029824,
        "lon": -97.53551305694612,
        "alt_km": 439.5205977898431,
        "timestamp": "2025-12-24T11:32:58.716915+00:00",
        "meta_object_name": "STARLINK-35820",
        "meta_object_id": "2025-270K",
        "meta_epoch": "2025-12-24T01:39:32.433696",
        "meta_mean_motion": 15.40696473,
        "meta_eccentricity": 0.0001371,
        "meta_inclination": 43.0036,
        "meta_ra_of_asc_node": 127.3192,
        "meta_arg_of_pericenter": 264.1226,
        "meta_mean_anomaly": 95.9474,
        "meta_ephemeris_type": 0,
        "meta_classification_type": "U",
        "meta_norad_cat_id": 66597,
        "meta_element_set_no": 999,
        "meta_rev_at_epoch": 620,
        "meta_bstar": 0.001046,
        "meta_mean_motion_dot": 0.00043636,
        "meta_mean_motion_ddot": 0,
        "tle_line1": "1 66597U 25270K   25358.06912539  .00043636  00000+0  10460-2 0  9991",
        "tle_line2": "2 66597  43.0036 127.3192 0001371 264.1226  95.9474 15.40696473  6202"
      },
      "geometry": {
        "type": "Point",
        "coordinates": [
          -97.53551305694612,
          32.185642739029824
        ]
      }
    },
    {
      "type": "Feature",
      "properties": {
        "norad_id": 66598,
        "name": "STARLINK-35981",
        "group": "last-30-days",
        "lat": -23.558926501550506,
        "lon": -27.371873416733038,
        "alt_km": 445.47330078382765,
        "timestamp": "2025-12-24T11:32:58.716925+00:00",
        "meta_object_name": "STARLINK-35981",
        "meta_object_id": "2025-270L",
        "meta_epoch": "2025-12-23T19:03:32.469120",
        "meta_mean_motion": 15.40748442,
        "meta_eccentricity": 0.0002454,
        "meta_inclination": 43.0028,
        "meta_ra_of_asc_node": 128.6923,
        "meta_arg_of_pericenter": 283.9609,
        "meta_mean_anomaly": 76.0975,
        "meta_ephemeris_type": 0,
        "meta_classification_type": "U",
        "meta_norad_cat_id": 66598,
        "meta_element_set_no": 999,
        "meta_rev_at_epoch": 590,
        "meta_bstar": 0.0010281449,
        "meta_mean_motion_dot": 0.00042958,
        "meta_mean_motion_ddot": 0,
        "tle_line1": "1 66598U 25270L   25357.79412580  .00042958  00000+0  10281-2 0  9999",
        "tle_line2": "2 66598  43.0028 128.6923 0002454 283.9609  76.0975 15.40748442  5903"
      },
      "geometry": {
        "type": "Point",
        "coordinates": [
          -27.371873416733038,
          -23.558926501550506
        ]
      }
    },
    {
      "type": "Feature",
      "properties": {
        "norad_id": 66599,
        "name": "STARLINK-35930",
        "group": "last-30-days",
        "lat": -5.1646370055445665,
        "lon": 118.8334777616708,
        "alt_km": 444.06834394947236,
        "timestamp": "2025-12-24T11:32:58.716935+00:00",
        "meta_object_name": "STARLINK-35930",
        "meta_object_id": "2025-270M",
        "meta_epoch": "2025-12-24T04:00:01.998720",
        "meta_mean_motion": 15.40691678,
        "meta_eccentricity": 0.000141,
        "meta_inclination": 43.0007,
        "meta_ra_of_asc_node": 126.2125,
        "meta_arg_of_pericenter": 281.2905,
        "meta_mean_anomaly": 124.4823,
        "meta_ephemeris_type": 0,
        "meta_classification_type": "U",
        "meta_norad_cat_id": 66599,
        "meta_element_set_no": 999,
        "meta_rev_at_epoch": 613,
        "meta_bstar": 0.00098087,
        "meta_mean_motion_dot": 0.00040878,
        "meta_mean_motion_ddot": 0,
        "tle_line1": "1 66599U 25270M   25358.16668980  .00040878  00000+0  98087-3 0  9999",
        "tle_line2": "2 66599  43.0007 126.2125 0001410 281.2905 124.4823 15.40691678  6134"
      },
      "geometry": {
        "type": "Point",
        "coordinates": [
          118.8334777616708,
          -5.1646370055445665
        ]
      }
    },
    {
      "type": "Feature",
      "properties": {
        "norad_id": 66600,
        "name": "STARLINK-35980",
        "group": "last-30-days",
        "lat": -42.81799778838699,
        "lon": 28.513523170647385,
        "alt_km": 446.0507603651213,
        "timestamp": "2025-12-24T11:32:58.716961+00:00",
        "meta_object_name": "STARLINK-35980",
        "meta_object_id": "2025-270N",
        "meta_epoch": "2025-12-23T20:23:59.567136",
        "meta_mean_motion": 15.40726369,
        "meta_eccentricity": 0.0001701,
        "meta_inclination": 43.0003,
        "meta_ra_of_asc_node": 128.2485,
        "meta_arg_of_pericenter": 271.9828,
        "meta_mean_anomaly": 88.0833,
        "meta_ephemeris_type": 0,
        "meta_classification_type": "U",
        "meta_norad_cat_id": 66600,
        "meta_element_set_no": 999,
        "meta_rev_at_epoch": 596,
        "meta_bstar": 0.00092614,
        "meta_mean_motion_dot": 0.00038614,
        "meta_mean_motion_ddot": 0,
        "tle_line1": "1 66600U 25270N   25357.84999499  .00038614  00000+0  92614-3 0  9993",
        "tle_line2": "2 66600  43.0003 128.2485 0001701 271.9828  88.0833 15.40726369  5969"
      },
      "geometry": {
        "type": "Point",
        "coordinates": [
          28.513523170647385,
          -42.81799778838699
        ]
      }
    },
    {
      "type": "Feature",
      "properties": {
        "norad_id": 66601,
        "name": "STARLINK-35978",
        "group": "last-30-days",
        "lat": 9.286917079864326,
        "lon": -65.26004573637026,
        "alt_km": 442.56008140341874,
        "timestamp": "2025-12-24T11:32:58.716972+00:00",
        "meta_object_name": "STARLINK-35978",
        "meta_object_id": "2025-270P",
        "meta_epoch": "2025-12-22T16:49:26.256576",
        "meta_mean_motion": 15.40724614,
        "meta_eccentricity": 3.635e-05,
        "meta_inclination": 43.0011,
        "meta_ra_of_asc_node": 135.1079,
        "meta_arg_of_pericenter": 356.863,
        "meta_mean_anomaly": 3.2224,
        "meta_ephemeris_type": 0,
        "meta_classification_type": "U",
        "meta_norad_cat_id": 66601,
        "meta_element_set_no": 999,
        "meta_rev_at_epoch": 572,
        "meta_bstar": 0.00026821225,
        "meta_mean_motion_dot": 0.00010926,
        "meta_mean_motion_ddot": 0,
        "tle_line1": "1 66601U 25270P   25356.70099834  .00010926  00000+0  26821-3 0  9995",
        "tle_line2": "2 66601  43.0011 135.1079 0000363 356.8630   3.2224 15.40724614  5720"
      },
      "geometry": {
        "type": "Point",
        "coordinates": [
          -65.26004573637026,
          9.286917079864326
        ]
      }
    },
    {
      "type": "Feature",
      "properties": {
        "norad_id": 66602,
        "name": "STARLINK-36050",
        "group": "last-30-days",
        "lat": 42.96311043743578,
        "lon": -143.2172976022177,
        "alt_km": 437.25640930293594,
        "timestamp": "2025-12-24T11:32:58.716982+00:00",
        "meta_object_name": "STARLINK-36050",
        "meta_object_id": "2025-270Q",
        "meta_epoch": "2025-12-24T01:49:13.575648",
        "meta_mean_motion": 15.40716651,
        "meta_eccentricity": 6.43e-05,
        "meta_inclination": 42.9967,
        "meta_ra_of_asc_node": 127.3704,
        "meta_arg_of_pericenter": 334.0449,
        "meta_mean_anomaly": 26.0375,
        "meta_ephemeris_type": 0,
        "meta_classification_type": "U",
        "meta_norad_cat_id": 66602,
        "meta_element_set_no": 999,
        "meta_rev_at_epoch": 599,
        "meta_bstar": 0.00097579,
        "meta_mean_motion_dot": 0.00040697,
        "meta_mean_motion_ddot": 0,
        "tle_line1": "1 66602U 25270Q   25358.07585157  .00040697  00000+0  97579-3 0  9992",
        "tle_line2": "2 66602  42.9967 127.3704 0000643 334.0449  26.0375 15.40716651  5995"
      },
      "geometry": {
        "type": "Point",
        "coordinates": [
          -143.2172976022177,
          42.96311043743578
        ]
      }
    },
    {
      "type": "Feature",
      "properties": {
        "norad_id": 66603,
        "name": "STARLINK-36048",
        "group": "last-30-days",
        "lat": -15.745881680518163,
        "lon": -37.62773258679513,
        "alt_km": 445.0042173687034,
        "timestamp": "2025-12-24T11:32:58.716992+00:00",
        "meta_object_name": "STARLINK-36048",
        "meta_object_id": "2025-270R",
        "meta_epoch": "2025-12-23T16:00:04.310784",
        "meta_mean_motion": 15.40725788,
        "meta_eccentricity": 6.938e-05,
        "meta_inclination": 42.9946,
        "meta_ra_of_asc_node": 129.4525,
        "meta_arg_of_pericenter": 249.5933,
        "meta_mean_anomaly": 110.4849,
        "meta_ephemeris_type": 0,
        "meta_classification_type": "U",
        "meta_norad_cat_id": 66603,
        "meta_element_set_no": 999,
        "meta_rev_at_epoch": 593,
        "meta_bstar": 0.0011653172,
        "meta_mean_motion_dot": 0.00048728,
        "meta_mean_motion_ddot": 0,
        "tle_line1": "1 66603U 25270R   25357.66671656  .00048728  00000+0  11653-2 0  9998",
        "tle_line2": "2 66603  42.9946 129.4525 0000693 249.5933 110.4849 15.40725788  5939"
      },
      "geometry": {
        "type": "Point",
        "coordinates": [
          -37.62773258679513,
          -15.745881680518163
        ]
      }
    }
  ]
}